{
  "type": "FeatureCollection",
  "features": [
    {
      "type": "Feature",
      "properties": {
        "norad_id": 66654,
        "name": "JACK E",
        "group": "last-30-days",
        "lat": -37.73998210467671,
        "lon": -68.02832879532123,
        "alt_km": 600.8161196726423,
        "timestamp": "2025-12-24T22:42:20.744479+00:00",
        "meta_object_name": "JACK E",
        "meta_object_id": "2025-274E",
        "meta_epoch": "2025-12-23T14:41:17.496384",
        "meta_mean_motion": 14.92137123,
        "meta_eccentricity": 0.00122814,
        "meta_inclination": 97.7407,
        "meta_ra_of_asc_node": 284.6177,
        "meta_arg_of_pericenter": 214.8879,
        "meta_mean_anomaly": 145.1536,
        "meta_ephemeris_type": 0,
        "meta_classification_type": "U",
        "meta_norad_cat_id": 66654,
        "meta_element_set_no": 999,
        "meta_rev_at_epoch": 402,
        "meta_bstar": 0.00030019774,
        "meta_mean_motion_dot": 3.001e-05,
        "meta_mean_motion_ddot": 0,
        "tle_line1": "1 66654U 25274E   25357.61200806  .00003001  00000+0  30020-3 0  9993",
        "tle_line2": "2 66654  97.7407 284.6177 0012281 214.8879 145.1536 14.92137123  4025"
      },
      "geometry": {
        "type": "Point",
        "coordinates": [
          -68.02832879532123,
          -37.73998210467671
        ]
      }
    },
    {
      "type": "Feature",
      "properties": {
        "norad_id": 66655,
        "name": "2025-274F",
        "group": "last-30-days",
        "lat": -74.25908741013673,
        "lon": -45.26758786643708,
        "alt_km": 599.9431489925737,
        "timestamp": "2025-12-24T22:42:20.744495+00:00",
        "meta_object_name": "2025-274F",
        "meta_object_id": "2025-274F",
        "meta_epoch": "2025-12-24T06:56:33.276192",
        "meta_mean_motion": 14.911933,
        "meta_eccentricity": 0.00044335,
        "meta_inclination": 97.7344,
        "meta_ra_of_asc_node": 285.2601,
        "meta_arg_of_pericenter": 344.9357,
        "meta_mean_anomaly": 15.1729,
        "meta_ephemeris_type": 0,
        "meta_classification_type": "U",
        "meta_norad_cat_id": 66655,
        "meta_element_set_no": 999,
        "meta_rev_at_epoch": 412,
        "meta_bstar": 1.9529297e-05,
        "meta_mean_motion_dot": 1.39e-06,
        "meta_mean_motion_ddot": 0,
        "tle_line1": "1 66655U 25274F   25358.28927403  .00000139  00000+0  19529-4 0  9998",
        "tle_line2": "2 66655  97.7344 285.2601 0004433 344.9357  15.1729 14.91193300  4120"
      },
      "geometry": {
        "type": "Point",
        "coordinates": [
          -45.26758786643708,
          -74.25908741013673
        ]
      }
    },
    {
      "type": "Feature",
      "properties": {
        "norad_id": 66656,
        "name": "2025-274G",
        "group": "last-30-days",
        "lat": -18.8559749142263,
        "lon": -71.40177559512159,
        "alt_km": 601.4204767525789,
        "timestamp": "2025-12-24T22:42:20.744506+00:00",
        "meta_object_name": "2025-274G",
        "meta_object_id": "2025-274G",
        "meta_epoch": "2025-12-24T06:41:56.198688",
        "meta_mean_motion": 14.92338641,
        "meta_eccentricity": 0.00128924,
        "meta_inclination": 97.7403,
        "meta_ra_of_asc_node": 285.2804,
        "meta_arg_of_pericenter": 214.2164,
        "meta_mean_anomaly": 145.8225,
        "meta_ephemeris_type": 0,
        "meta_classification_type": "U",
        "meta_norad_cat_id": 66656,
        "meta_element_set_no": 999,
        "meta_rev_at_epoch": 412,
        "meta_bstar": 0.00034581161,
        "meta_mean_motion_dot": 3.484e-05,
        "meta_mean_motion_ddot": 0,
        "tle_line1": "1 66656U 25274G   25358.27912267  .00003484  00000+0  34581-3 0  9990",
        "tle_line2": "2 66656  97.7403 285.2804 0012892 214.2164 145.8225 14.92338641  4127"
      },
      "geometry": {
        "type": "Point",
        "coordinates": [
          -71.40177559512159,
          -18.8559749142263
        ]
      }
    },
    {
      "type": "Feature",
      "properties": {
        "norad_id": 66657,
        "name": "SPIRONE",
        "group": "last-30-days",
        "lat": -0.8646477788342533,
        "lon": -73.93967876319546,
        "alt_km": 598.0781218312131,
        "timestamp": "2025-12-24T22:42:20.744516+00:00",
        "meta_object_name": "SPIRONE",
        "meta_object_id": "2025-274H",
        "meta_epoch": "2025-12-24T06:37:10.218144",
        "meta_mean_motion": 14.92516634,
        "meta_eccentricity": 0.00109283,
        "meta_inclination": 97.74,
        "meta_ra_of_asc_node": 285.2839,
        "meta_arg_of_pericenter": 231.9202,
        "meta_mean_anomaly": 128.1032,
        "meta_ephemeris_type": 0,
        "meta_classification_type": "U",
        "meta_norad_cat_id": 66657,
        "meta_element_set_no": 999,
        "meta_rev_at_epoch": 412,
        "meta_bstar": 0.00033060132,
        "meta_mean_motion_dot": 3.342e-05,
        "meta_mean_motion_ddot": 0,
        "tle_line1": "1 66657U 25274H   25358.27581271  .00003342  00000+0  33060-3 0  9992",
        "tle_line2": "2 66657  97.7400 285.2839 0010928 231.9202 128.1032 14.92516634  4120"
      },
      "geometry": {
        "type": "Point",
        "coordinates": [
          -73.93967876319546,
          -0.8646477788342533
        ]
      }
    },
    {
      "type": "Feature",
      "properties": {
        "norad_id": 66658,
        "name": "2025-274J",
        "group": "last-30-days",
        "lat": 16.51550807120479,
        "lon": -76.3606008418264,
        "alt_km": 596.6180718978221,
        "timestamp": "2025-12-24T22:42:20.744528+00:00",
        "meta_object_name": "2025-274J",
        "meta_object_id": "2025-274J",
        "meta_epoch": "2025-12-24T06:32:34.484640",
        "meta_mean_motion": 14.92692268,
        "meta_eccentricity": 0.00114577,
        "meta_inclination": 97.74,
        "meta_ra_of_asc_node": 285.2885,
        "meta_arg_of_pericenter": 235.3379,
        "meta_mean_anomaly": 124.6761,
        "meta_ephemeris_type": 0,
        "meta_classification_type": "U",
        "meta_norad_cat_id": 66658,
        "meta_element_set_no": 999,
        "meta_rev_at_epoch": 412,
        "meta_bstar": 0.00044355849,
        "meta_mean_motion_dot": 4.525e-05,
        "meta_mean_motion_ddot": 0,
        "tle_line1": "1 66658U 25274J   25358.27262135  .00004525  00000+0  44356-3 0  9992",
        "tle_line2": "2 66658  97.7400 285.2885 0011457 235.3379 124.6761 14.92692268  4121"
      },
      "geometry": {
        "type": "Point",
        "coordinates": [
          -76.3606008418264,
          16.51550807120479
        ]
      }
    },
    {
      "type": "Feature",
      "properties": {
        "norad_id": 66659,
        "name": "JACK K",
        "group": "last-30-days",
        "lat": 35.05658388797967,
        "lon": -79.51739280097392,
        "alt_km": 594.6953931939879,
        "timestamp": "2025-12-24T22:42:20.744540+00:00",
        "meta_object_name": "JACK K",
        "meta_object_id": "2025-274K",
        "meta_epoch": "2025-12-24T06:27:39.283488",
        "meta_mean_motion": 14.92869012,
        "meta_eccentricity": 0.00121886,
        "meta_inclination": 97.7402,
        "meta_ra_of_asc_node": 285.2934,
        "meta_arg_of_pericenter": 237.225,
        "meta_mean_anomaly": 122.7795,
        "meta_ephemeris_type": 0,
        "meta_classification_type": "U",
        "meta_norad_cat_id": 66659,
        "meta_element_set_no": 999,
        "meta_rev_at_epoch": 412,
        "meta_bstar": 0.00028972435,
        "meta_mean_motion_dot": 2.949e-05,
        "meta_mean_motion_ddot": 0,
        "tle_line1": "1 66659U 25274K   25358.26920467  .00002949  00000+0  28972-3 0  9995",
        "tle_line2": "2 66659  97.7402 285.2934 0012188 237.2250 122.7795 14.92869012  4129"
      },
      "geometry": {
        "type": "Point",
        "coordinates": [
          -79.51739280097392,
          35.05658388797967
        ]
      }
    },
    {
      "type": "Feature",
      "properties": {
        "norad_id": 66660,
        "name": "K-HERO",
        "group": "last-30-days",
        "lat": 50.05021418893858,
        "lon": -83.37852078099421,
        "alt_km": 592.8561552023375,
        "timestamp": "2025-12-24T22:42:20.744552+00:00",
        "meta_object_name": "K-HERO",
        "meta_object_id": "2025-274L",
        "meta_epoch": "2025-12-24T04:47:09.001536",
        "meta_mean_motion": 14.93020053,
        "meta_eccentricity": 0.00128098,
        "meta_inclination": 97.7405,
        "meta_ra_of_asc_node": 285.2325,
        "meta_arg_of_pericenter": 238.283,
        "meta_mean_anomaly": 121.7141,
        "meta_ephemeris_type": 0,
        "meta_classification_type": "U",
        "meta_norad_cat_id": 66660,
        "meta_element_set_no": 999,
        "meta_rev_at_epoch": 411,
        "meta_bstar": 0.00029131488,
        "meta_mean_motion_dot": 2.977e-05,
        "meta_mean_motion_ddot": 0,
        "tle_line1": "1 66660U 25274L   25358.19940974  .00002977  00000+0  29131-3 0  9993",
        "tle_line2": "2 66660  97.7405 285.2325 0012809 238.2830 121.7141 14.93020053  4111"
      },
      "geometry": {
        "type": "Point",
        "coordinates": [
          -83.37852078099421,
          50.05021418893858
        ]
      }
    }
  ]
}